NUSAT-47                
1 66743U 25276CF  26201.92547565  .00003852  00000+0  17880-3 0  9996
2 66743  97.4169 275.0010 0001065 177.5270 182.5971 15.20622194 35553
NUSAT-53 (JANE GOODALL) 
1 68432U 26067S   26201.86743445  .00003594  00000+0  17559-3 0  9996
2 68432  97.4576 159.9131 0000297 248.1798 111.9405 15.18885401 17054
NUSAT-54 (BRANCA MARQU*)
1 68442U 26067AC  26201.86224026  .00003349  00000+0  16790-3 0  9990
2 68442  97.4559 159.7424 0003185 338.1448  21.9650 15.18029841 17049
