{"fetched_at":"2026-07-21T07:07:03.107Z","source":"https://celestrak.org/NORAD/elements/gp.php?NAME=NUSAT&FORMAT=JSON","constellation":"satellogic","records":[{"OBJECT_NAME":"NUSAT-47","OBJECT_ID":"2025-276CF","EPOCH":"2026-07-20T22:12:41.096160","CLASSIFICATION_TYPE":"U","MEAN_MOTION":15.20622194,"ECCENTRICITY":0.00010658,"INCLINATION":97.4169,"RA_OF_ASC_NODE":275.001,"ARG_OF_PERICENTER":177.527,"MEAN_ANOMALY":182.5971,"EPHEMERIS_TYPE":0,"NORAD_CAT_ID":66743,"ELEMENT_SET_NO":999,"REV_AT_EPOCH":3555,"BSTAR":0.00017879539,"MEAN_MOTION_DOT":0.00003852,"MEAN_MOTION_DDOT":0},{"OBJECT_NAME":"NUSAT-53 (JANE GOODALL)","OBJECT_ID":"2026-067S","EPOCH":"2026-07-20T20:49:06.336480","CLASSIFICATION_TYPE":"U","MEAN_MOTION":15.18885401,"ECCENTRICITY":0.00002977,"INCLINATION":97.4576,"RA_OF_ASC_NODE":159.9131,"ARG_OF_PERICENTER":248.1798,"MEAN_ANOMALY":111.9405,"EPHEMERIS_TYPE":0,"NORAD_CAT_ID":68432,"ELEMENT_SET_NO":999,"REV_AT_EPOCH":1705,"BSTAR":0.00017558988,"MEAN_MOTION_DOT":0.00003594,"MEAN_MOTION_DDOT":0},{"OBJECT_NAME":"NUSAT-54 (BRANCA MARQUES)","OBJECT_ID":"2026-067AC","EPOCH":"2026-07-20T20:41:37.558464","CLASSIFICATION_TYPE":"U","MEAN_MOTION":15.18029841,"ECCENTRICITY":0.00031854,"INCLINATION":97.4559,"RA_OF_ASC_NODE":159.7424,"ARG_OF_PERICENTER":338.1448,"MEAN_ANOMALY":21.965,"EPHEMERIS_TYPE":0,"NORAD_CAT_ID":68442,"ELEMENT_SET_NO":999,"REV_AT_EPOCH":1704,"BSTAR":0.00016789544,"MEAN_MOTION_DOT":0.00003349,"MEAN_MOTION_DDOT":0}]}
